[{"OBJECT_NAME":"STARLINK-2646","OBJECT_ID":"2021-044E","EPOCH":"2026-03-09T10:04:06.206592","MEAN_MOTION":15.30215302,"ECCENTRICITY":0.00013296,"INCLINATION":53.158,"RA_OF_ASC_NODE":115.1995,"ARG_OF_PERICENTER":78.8022,"MEAN_ANOMALY":281.3129,"EPHEMERIS_TYPE":0,"CLASSIFICATION_TYPE":"U","NORAD_CAT_ID":48642,"ELEMENT_SET_NO":999,"REV_AT_EPOCH":26378,"BSTAR":0.00034110891,"MEAN_MOTION_DOT":9.762e-5,"MEAN_MOTION_DDOT":0},{"OBJECT_NAME":"GENMAT-1","OBJECT_ID":"2023-174W","EPOCH":"2026-03-09T18:03:23.351040","MEAN_MOTION":15.32594666,"ECCENTRICITY":0.00074416,"INCLINATION":97.3728,"RA_OF_ASC_NODE":146.8236,"ARG_OF_PERICENTER":169.2515,"MEAN_ANOMALY":190.8888,"EPHEMERIS_TYPE":0,"CLASSIFICATION_TYPE":"U","NORAD_CAT_ID":58276,"ELEMENT_SET_NO":999,"REV_AT_EPOCH":12973,"BSTAR":0.00042157222,"MEAN_MOTION_DOT":0.0001321,"MEAN_MOTION_DDOT":0}]
